{"type": "FeatureCollection", "features": [{"type": "Feature", "properties": {"norad_id": 26766, "name": "INTELSAT 10 (IS-10)", "group": "intelsat", "lat": -5.073145591765646, "lon": -83.35462694012566, "alt_km": 36093.22003177559, "timestamp": "2025-12-18T04:58:34.247896+00:00", "meta": {"OBJECT_NAME": "INTELSAT 10 (IS-10)", "OBJECT_ID": "2001-019A", "EPOCH": "2025-12-17T16:46:34.156416", "MEAN_MOTION": 0.99076588, "ECCENTRICITY": 0.00076789, "INCLINATION": 8.6409, "RA_OF_ASC_NODE": 61.1075, "ARG_OF_PERICENTER": 227.9542, "MEAN_ANOMALY": 166.599, "EPHEMERIS_TYPE": 0, "CLASSIFICATION_TYPE": "U", "NORAD_CAT_ID": 26766, "ELEMENT_SET_NO": 999, "REV_AT_EPOCH": 4378, "BSTAR": 0, "MEAN_MOTION_DOT": -1.87e-06, "MEAN_MOTION_DDOT": 0}, "tle": {"line1": "1 26766U 01019A   25351.69900644 -.00000187  00000+0  00000+0 0  9997", "line2": "2 26766   8.6409  61.1075 0007678 227.9542 166.5990  0.99076588 43785"}}, "geometry": {"type": "Point", "coordinates": [-83.35462694012566, -5.073145591765646]}}, {"type": "Feature", "properties": {"norad_id": 26900, "name": "INTELSAT 902 (IS-902)", "group": "intelsat", "lat": 3.470795517530469, "lon": 111.43219457705155, "alt_km": 35803.05147951877, "timestamp": "2025-12-18T04:58:34.247936+00:00", "meta": {"OBJECT_NAME": "INTELSAT 902 (IS-902)", "OBJECT_ID": "2001-039A", "EPOCH": "2025-12-15T13:09:02.081664", "MEAN_MOTION": 1.0027087, "ECCENTRICITY": 0.00045028, "INCLINATION": 5.6536, "RA_OF_ASC_NODE": 74.0372, "ARG_OF_PERICENTER": 189.6359, "MEAN_ANOMALY": 327.9329, "EPHEMERIS_TYPE": 0, "CLASSIFICATION_TYPE": "U", "NORAD_CAT_ID": 26900, "ELEMENT_SET_NO": 999, "REV_AT_EPOCH": 8885, "BSTAR": 0, "MEAN_MOTION_DOT": -2.65e-06, "MEAN_MOTION_DDOT": 0}, "tle": {"line1": "1 26900U 01039A   25349.54794076 -.00000265  00000+0  00000+0 0  9997", "line2": "2 26900   5.6536  74.0372 0004502 189.6359 327.9329  1.00270870 88858"}}, "geometry": {"type": "Point", "coordinates": [111.43219457705155, 3.470795517530469]}}, {"type": "Feature", "properties": {"norad_id": 27380, "name": "INTELSAT 904 (IS-904)", "group": "intelsat", "lat": 5.550951263032097, "lon": 130.05260069363692, "alt_km": 35792.42360109323, "timestamp": "2025-12-18T04:58:34.247952+00:00", "meta": {"OBJECT_NAME": "INTELSAT 904 (IS-904)", "OBJECT_ID": "2002-007A", "EPOCH": "2025-12-17T14:53:13.576128", "MEAN_MOTION": 1.00271789, "ECCENTRICITY": 0.00016726, "INCLINATION": 6.4662, "RA_OF_ASC_NODE": 71.3767, "ARG_OF_PERICENTER": 244.3665, "MEAN_ANOMALY": 322.5591, "EPHEMERIS_TYPE": 0, "CLASSIFICATION_TYPE": "U", "NORAD_CAT_ID": 27380, "ELEMENT_SET_NO": 999, "REV_AT_EPOCH": 4994, "BSTAR": 0, "MEAN_MOTION_DOT": -2.06e-06, "MEAN_MOTION_DDOT": 0}, "tle": {"line1": "1 27380U 02007A   25351.62029602 -.00000206  00000+0  00000+0 0  9999", "line2": "2 27380   6.4662  71.3767 0001672 244.3665 322.5591  1.00271789 49941"}}, "geometry": {"type": "Point", "coordinates": [130.05260069363692, 5.550951263032097]}}, {"type": "Feature", "properties": {"norad_id": 27426, "name": "DIRECTV 5 (TEMPO 1)", "group": "intelsat", "lat": -1.9093070881645922, "lon": 51.69254447951702, "alt_km": 35795.00184993699, "timestamp": "2025-12-18T04:58:34.247966+00:00", "meta": {"OBJECT_NAME": "DIRECTV 5 (TEMPO 1)", "OBJECT_ID": "2002-023A", "EPOCH": "2025-12-17T21:21:41.887296", "MEAN_MOTION": 1.00272699, "ECCENTRICITY": 0.00034016, "INCLINATION": 4.4147, "RA_OF_ASC_NODE": 77.5935, "ARG_OF_PERICENTER": 205.9079, "MEAN_ANOMALY": 13.5685, "EPHEMERIS_TYPE": 0, "CLASSIFICATION_TYPE": "U", "NORAD_CAT_ID": 27426, "ELEMENT_SET_NO": 999, "REV_AT_EPOCH": 8630, "BSTAR": 0, "MEAN_MOTION_DOT": -3.6e-07, "MEAN_MOTION_DDOT": 0}, "tle": {"line1": "1 27426U 02023A   25351.89006814 -.00000036  00000+0  00000+0 0  9998", "line2": "2 27426   4.4147  77.5935 0003401 205.9079  13.5685  1.00272699 86300"}}, "geometry": {"type": "Point", "coordinates": [51.69254447951702, -1.9093070881645922]}}, {"type": "Feature", "properties": {"norad_id": 27438, "name": "INTELSAT 905 (IS-905)", "group": "intelsat", "lat": -4.625509875435195, "lon": 24.70725101477037, "alt_km": 35791.10066917879, "timestamp": "2025-12-18T04:58:34.247979+00:00", "meta": {"OBJECT_NAME": "INTELSAT 905 (IS-905)", "OBJECT_ID": "2002-027A", "EPOCH": "2025-12-17T10:05:38.730624", "MEAN_MOTION": 1.00273084, "ECCENTRICITY": 0.00027324, "INCLINATION": 6.297, "RA_OF_ASC_NODE": 72.0021, "ARG_OF_PERICENTER": 197.8193, "MEAN_ANOMALY": 190.6776, "EPHEMERIS_TYPE": 0, "CLASSIFICATION_TYPE": "U", "NORAD_CAT_ID": 27438, "ELEMENT_SET_NO": 999, "REV_AT_EPOCH": 4954, "BSTAR": 0, "MEAN_MOTION_DOT": 1.13e-06, "MEAN_MOTION_DDOT": 0}, "tle": {"line1": "1 27438U 02027A   25351.42058716  .00000113  00000+0  00000+0 0  9997", "line2": "2 27438   6.2970  72.0021 0002732 197.8193 190.6776  1.00273084 49547"}}, "geometry": {"type": "Point", "coordinates": [24.70725101477037, -4.625509875435195]}}, {"type": "Feature", "properties": {"norad_id": 27445, "name": "GALAXY 3C (G-3C)", "group": "intelsat", "lat": -0.7451880333778823, "lon": 66.85520337425878, "alt_km": 35786.30464004854, "timestamp": "2025-12-18T04:58:34.248004+00:00", "meta": {"OBJECT_NAME": "GALAXY 3C (G-3C)", "OBJECT_ID": "2002-030A", "EPOCH": "2025-12-17T14:35:07.808928", "MEAN_MOTION": 1.00272151, "ECCENTRICITY": 0.0001116, "INCLINATION": 3.2756, "RA_OF_ASC_NODE": 80.457, "ARG_OF_PERICENTER": 78.9562, "MEAN_ANOMALY": 50.9897, "EPHEMERIS_TYPE": 0, "CLASSIFICATION_TYPE": "U", "NORAD_CAT_ID": 27445, "ELEMENT_SET_NO": 999, "REV_AT_EPOCH": 4467, "BSTAR": 0, "MEAN_MOTION_DOT": -1.3e-06, "MEAN_MOTION_DDOT": 0}, "tle": {"line1": "1 27445U 02030A   25351.60772927 -.00000130  00000+0  00000+0 0  9996", "line2": "2 27445   3.2756  80.4570 0001116  78.9562  50.9897  1.00272151 44675"}}, "geometry": {"type": "Point", "coordinates": [66.85520337425878, -0.7451880333778823]}}, {"type": "Feature", "properties": {"norad_id": 27513, "name": "INTELSAT 906 (IS-906)", "group": "intelsat", "lat": 2.5984428105784354, "lon": -134.1051788196161, "alt_km": 35766.97032518968, "timestamp": "2025-12-18T04:58:34.248020+00:00", "meta": {"OBJECT_NAME": "INTELSAT 906 (IS-906)", "OBJECT_ID": "2002-041A", "EPOCH": "2025-12-17T08:29:43.757088", "MEAN_MOTION": 1.00272337, "ECCENTRICITY": 0.00062852, "INCLINATION": 5.341, "RA_OF_ASC_NODE": 75.1769, "ARG_OF_PERICENTER": 196.4812, "MEAN_ANOMALY": 6.1313, "EPHEMERIS_TYPE": 0, "CLASSIFICATION_TYPE": "U", "NORAD_CAT_ID": 27513, "ELEMENT_SET_NO": 999, "REV_AT_EPOCH": 8520, "BSTAR": 0, "MEAN_MOTION_DOT": 3.3e-07, "MEAN_MOTION_DDOT": 0}, "tle": {"line1": "1 27513U 02041A   25351.35397867  .00000033  00000+0  00000+0 0  9993", "line2": "2 27513   5.3410  75.1769 0006285 196.4812   6.1313  1.00272337 85204"}}, "geometry": {"type": "Point", "coordinates": [-134.1051788196161, 2.5984428105784354]}}, {"type": "Feature", "properties": {"norad_id": 27954, "name": "GALAXY 13 (HORIZONS-1)", "group": "intelsat", "lat": -0.9047166271213806, "lon": 11.74255265773884, "alt_km": 35788.361875806586, "timestamp": "2025-12-18T04:58:34.248033+00:00", "meta": {"OBJECT_NAME": "GALAXY 13 (HORIZONS-1)", "OBJECT_ID": "2003-044A", "EPOCH": "2025-12-17T17:44:57.132096", "MEAN_MOTION": 1.00273776, "ECCENTRICITY": 0.00021044, "INCLINATION": 0.9491, "RA_OF_ASC_NODE": 86.4074, "ARG_OF_PERICENTER": 177.1949, "MEAN_ANOMALY": 299.256, "EPHEMERIS_TYPE": 0, "CLASSIFICATION_TYPE": "U", "NORAD_CAT_ID": 27954, "ELEMENT_SET_NO": 999, "REV_AT_EPOCH": 4475, "BSTAR": 0, "MEAN_MOTION_DOT": 1.57e-06, "MEAN_MOTION_DDOT": 0}, "tle": {"line1": "1 27954U 03044A   25351.73955014  .00000157  00000+0  00000+0 0  9999", "line2": "2 27954   0.9491  86.4074 0002104 177.1949 299.2560  1.00273776 44752"}}, "geometry": {"type": "Point", "coordinates": [11.74255265773884, -0.9047166271213806]}}, {"type": "Feature", "properties": {"norad_id": 28358, "name": "INTELSAT 10-02", "group": "intelsat", "lat": 0.017551403015478743, "lon": 160.74010630630292, "alt_km": 35789.11034439362, "timestamp": "2025-12-18T04:58:34.248045+00:00", "meta": {"OBJECT_NAME": "INTELSAT 10-02", "OBJECT_ID": "2004-022A", "EPOCH": "2025-12-17T18:27:30.557088", "MEAN_MOTION": 1.00272675, "ECCENTRICITY": 9.347e-05, "INCLINATION": 0.021, "RA_OF_ASC_NODE": 68.0618, "ARG_OF_PERICENTER": 239.8098, "MEAN_ANOMALY": 54.6873, "EPHEMERIS_TYPE": 0, "CLASSIFICATION_TYPE": "U", "NORAD_CAT_ID": 28358, "ELEMENT_SET_NO": 999, "REV_AT_EPOCH": 7873, "BSTAR": 0, "MEAN_MOTION_DOT": 1.4e-07, "MEAN_MOTION_DDOT": 0}, "tle": {"line1": "1 28358U 04022A   25351.76910367  .00000014  00000+0  00000+0 0  9992", "line2": "2 28358   0.0210  68.0618 0000934 239.8098  54.6873  1.00272675 78733"}}, "geometry": {"type": "Point", "coordinates": [160.74010630630292, 0.017551403015478743]}}, {"type": "Feature", "properties": {"norad_id": 28626, "name": "XM-3 (RHYTHM)", "group": "intelsat", "lat": 0.010987230672755692, "lon": -109.98502744413358, "alt_km": 36163.23474120093, "timestamp": "2025-12-18T04:58:34.248057+00:00", "meta": {"OBJECT_NAME": "XM-3 (RHYTHM)", "OBJECT_ID": "2005-008A", "EPOCH": "2025-12-17T20:36:08.748576", "MEAN_MOTION": 0.98950486, "ECCENTRICITY": 0.00018147, "INCLINATION": 0.1876, "RA_OF_ASC_NODE": 81.881, "ARG_OF_PERICENTER": 277.8195, "MEAN_ANOMALY": 126.0552, "EPHEMERIS_TYPE": 0, "CLASSIFICATION_TYPE": "U", "NORAD_CAT_ID": 28626, "ELEMENT_SET_NO": 999, "REV_AT_EPOCH": 4080, "BSTAR": 0, "MEAN_MOTION_DOT": 1.7e-07, "MEAN_MOTION_DDOT": 0}, "tle": {"line1": "1 28626U 05008A   25351.85843459  .00000017  00000+0  00000+0 0  9995", "line2": "2 28626   0.1876  81.8810 0001814 277.8195 126.0552  0.98950486 40809"}}, "geometry": {"type": "Point", "coordinates": [-109.98502744413358, 0.010987230672755692]}}]}